BEIDOU-2 IGSO-1 (C06)   
1 36828U 10036A   24026.85188295 -.00000123  00000+0  00000+0 0  9992
2 36828  54.2470 170.8562 0038835 192.8293 177.1339  1.00268385 49468
BEIDOU-2 G4 (C04)       
1 37210U 10057A   24028.87174569 -.00000104  00000+0  00000+0 0  9993
2 37210   1.5107  66.2607 0007172 198.3905 336.8803  1.00272404 48562
BEIDOU-2 IGSO-2 (C07)   
1 37256U 10068A   24028.64581075 -.00000168  00000+0  00000+0 0  9994
2 37256  49.1366 282.5307 0031288 213.3711 329.8663  1.00295891 48061
BEIDOU-2 IGSO-3 (C08)   
1 37384U 11013A   24029.51069404 -.00000154  00000+0  00000+0 0  9996
2 37384  61.1515  48.4593 0028256 184.5468 185.7985  1.00294546 46956
BEIDOU-2 IGSO-4 (C09)   
1 37763U 11038A   24028.35755608 -.00000038  00000+0  00000+0 0  9994
2 37763  54.5546 173.4252 0117827 226.7219 310.0466  1.00288821 45915
BEIDOU-2 IGSO-5 (C10)   
1 37948U 11073A   24028.68243730 -.00000121  00000+0  00000+0 0  9995
2 37948  49.2663 282.2092 0093663 220.6717 325.0492  1.00283711 44400
BEIDOU-2 G5 (C05)       
1 38091U 12008A   24029.13801955  .00000065  00000+0  00000+0 0  9990
2 38091   2.0621  70.4250 0009330 225.4771 300.3900  1.00269814 43750
BEIDOU-2 M3 (C11)       
1 38250U 12018A   24027.71340860 -.00000096  00000+0  00000+0 0  9998
2 38250  56.4291 334.0474 0024018 267.0626  92.6648  1.86231410 79711
BEIDOU-2 M4 (C12)       
1 38251U 12018B   24029.25509395 -.00000091  00000+0  00000+0 0  9995
2 38251  56.3368 333.2785 0014986 272.7550  87.0814  1.86232174 80098
BEIDOU-2 M6 (C14)       
1 38775U 12050B   24027.89086533 -.00000021  00000+0  00000+0 0  9997
2 38775  55.8005  91.8893 0012751 327.5162  32.4758  1.86231161 77434
BEIDOU-2 G6 (C02)       
1 38953U 12059A   24029.07144716 -.00000168  00000+0  00000+0 0  9996
2 38953   2.2013  81.4188 0009834 290.5816 225.5508  1.00273616 41326
BEIDOU-3S IGSO-1S (C31) 
1 40549U 15019A   24027.73799506 -.00000167  00000+0  00000+0 0  9992
2 40549  50.8343 305.8610 0035227 194.2056 347.7445  1.00280893 32332
BEIDOU-3S M2S (C58)     
1 40748U 15037A   24026.77177099 -.00000099  00000+0  00000+0 0  9997
2 40748  55.5744 331.8710 0011193 265.1273  94.7465  1.86233271 57874
BEIDOU-3S M1S (C57)     
1 40749U 15037B   24029.18984175 -.00000091  00000+0  00000+0 0  9999
2 40749  55.5759 331.7757 0006905 329.3327  30.6363  1.86233103 57914
BEIDOU-3S IGSO-2S (C56) 
1 40938U 15053A   24017.60469617 -.00000107  00000+0  00000+0 0  9998
2 40938  50.5932 269.1737 0046153 191.7705 325.9662  1.00252427 30519
BEIDOU-2 IGSO-6 (C13)   
1 41434U 16021A   24029.52682078 -.00000116  00000+0  00000+0 0  9998
2 41434  58.9658  46.7608 0049504 226.1930 137.3224  1.00255600 28758
BEIDOU-2 G7 (C03)       
1 41586U 16037A   24029.43476698 -.00000344  00000+0  00000+0 0  9995
2 41586   1.5714  67.4796 0009916 316.0684  11.6617  1.00268162 28060
BEIDOU-3 M1 (C19)       
1 43001U 17069A   24028.19400572 -.00000021  00000+0  00000+0 0  9997
2 43001  55.9516  91.9572 0010894 292.2381  67.7172  1.86231504 42380
BEIDOU-3 M2 (C20)       
1 43002U 17069B   24028.13097046 -.00000021  00000+0  00000+0 0  9990
2 43002  55.9508  91.9953 0008199 311.7869  48.2139  1.86231166 42378
BEIDOU-3 M7 (C27)       
1 43107U 18003A   24028.95487722 -.00000093  00000+0  00000+0 0  9998
2 43107  55.0303 332.4492 0003935  46.4667 313.5741  1.86232485 41157
BEIDOU-3 M8 (C28)       
1 43108U 18003B   24027.28329900 -.00000098  00000+0  00000+0 0  9992
2 43108  55.0244 332.4929 0004309 276.8342  83.1196  1.86231027 41124
BEIDOU-3 M4 (C22)       
1 43207U 18018A   24025.57727590 -.00000033  00000+0  00000+0 0  9994
2 43207  55.9085  92.1382 0004872 335.4906  24.5482  1.86231409 40470
BEIDOU-3 M3 (C21)       
1 43208U 18018B   24028.32864699 -.00000021  00000+0  00000+0 0  9990
2 43208  55.9100  92.0511 0008401 301.1737  58.8149  1.86231585 40527
BEIDOU-3 M9 (C29)       
1 43245U 18029A   24027.47682723 -.00000096  00000+0  00000+0 0  9996
2 43245  54.9201 330.2209 0001713 308.4678  51.5230  1.86232765 39668
BEIDOU-3 M10 (C30)      
1 43246U 18029B   24025.25886157 -.00000104  00000+0  00000+0 0  9998
2 43246  54.9185 330.3257 0004908 352.9829   7.0084  1.86232785 39604
BEIDOU-2 IGSO-7 (C16)   
1 43539U 18057A   24027.80118833 -.00000119  00000+0  00000+0 0  9992
2 43539  55.1367 170.6035 0069293 230.5574 124.0418  1.00296328 20395
BEIDOU-3 M5 (C23)       
1 43581U 18062A   24028.16464715  .00000052  00000+0  00000+0 0  9993
2 43581  54.1527 211.9378 0001618 347.9109  12.0801  1.86228859 37413
BEIDOU-3 M6 (C24)       
1 43582U 18062B   24028.56807786  .00000056  00000+0  00000+0 0  9991
2 43582  54.1524 211.9135 0007024  40.0474 319.9982  1.86229800 37422
BEIDOU-3 M12 (C26)      
1 43602U 18067A   24028.50299802  .00000055  00000+0  00000+0 0  9996
2 43602  54.2417 210.5845 0008173  31.3261 328.7140  1.86231700 36901
BEIDOU-3 M11 (C25)      
1 43603U 18067B   24028.63685293  .00000056  00000+0  00000+0 0  9995
2 43603  54.2387 210.5454 0004889  28.7235 331.2946  1.86231604 36934
BEIDOU-3 M13 (C32)      
1 43622U 18072A   24028.05980473 -.00000021  00000+0  00000+0 0  9999
2 43622  55.8805  91.5911 0007646 286.3595  73.6273  1.86231236 36433
BEIDOU-3 M14 (C33)      
1 43623U 18072B   24028.46221203 -.00000021  00000+0  00000+0 0  9994
2 43623  55.8827  91.5705 0004815 305.8636  54.1631  1.86231263 36439
BEIDOU-3 M16 (C35)      
1 43647U 18078A   24028.08859016 -.00000094  00000+0  00000+0 0  9993
2 43647  54.8158 330.3105 0007992   5.8710 354.1463  1.86232359 35935
BEIDOU-3 M15 (C34)      
1 43648U 18078B   24028.21770866 -.00000094  00000+0  00000+0 0  9994
2 43648  54.8114 330.3093 0004914   8.3960 351.6207  1.86232239 35968
BEIDOU-3 G1 (C59)       
1 43683U 18085A   24029.44068453 -.00000269  00000+0  00000+0 0  9993
2 43683   1.8540 115.7837 0002195 320.5043 350.5902  1.00271267 19336
BEIDOU-3 M17 (C36)      
1 43706U 18093A   24027.82916222  .00000050  00000+0  00000+0 0  9991
2 43706  54.2357 211.8773 0006254 294.2545  65.6759  1.86228469 35311
BEIDOU-3 M18 (C37)      
1 43707U 18093B   24028.23256435  .00000053  00000+0  00000+0 0  9994
2 43707  54.2365 211.8553 0006010 335.7995  24.1668  1.86229974 35318
BEIDOU-2 G8 (C01)       
1 44231U 19027A   24029.44155476 -.00000238  00000+0  00000+0 0  9998
2 44231   1.6024  72.7611 0004303 178.8703 179.9555  1.00276679 17352
BEIDOU-3 IGSO-2 (C39)   
1 44337U 19035A   24028.29002642 -.00000126  00000+0  00000+0 0  9998
2 44337  55.1689 166.5051 0031477 201.4802 342.5485  1.00285222 16932
BEIDOU-3 M24 (C46)      
1 44542U 19061A   24028.30311039  .00000054  00000+0  00000+0 0  9999
2 44542  54.4630 212.1198 0008575  12.7947 347.2221  1.86231396 29575
BEIDOU-3 M23 (C45)      
1 44543U 19061B   24028.69985189  .00000058  00000+0  00000+0 0  9999
2 44543  54.4615 212.0754 0005288  11.7196 166.3621  1.86231879 29580
BEIDOU-3 IGSO-3 (C40)   
1 44709U 19073A   24028.12607347 -.00000163  00000+0  00000+0 0  9999
2 44709  56.2875 290.2178 0034808 181.7261 178.3573  1.00292606 15722
BEIDOU-3 M22 (C44)      
1 44793U 19078A   24028.14875818 -.00000094  00000+0  00000+0 0  9992
2 44793  54.6638 330.2577 0006861  10.9574 349.0659  1.86232136 28429
BEIDOU-3 M21 (C43)      
1 44794U 19078B   24027.20503565 -.00000097  00000+0  00000+0 0  9999
2 44794  54.6382 330.2694 0004963   2.1218 357.8855  1.86232617 28413
BEIDOU-3 M19 (C41)      
1 44864U 19090A   24029.20663924 -.00000021  00000+0  00000+0 0  9996
2 44864  55.8156  91.7316 0018853 276.1387 179.2048  1.86231765 28026
BEIDOU-3 M20 (C42)      
1 44865U 19090B   24027.46484528 -.00000022  00000+0  00000+0 0  9995
2 44865  55.8162  91.8229 0016342 288.0037 169.3159  1.86231736 27988
BEIDOU-3 G2 (C60)       
1 45344U 20017A   24028.78420081 -.00000133  00000+0  00000+0 0  9992
2 45344   2.1600  23.6080 0003048 265.5355 200.7051  1.00271080 14533
BEIDOU-3 G3 (C61)       
1 45807U 20040A   24029.43476698 -.00000343  00000+0  00000+0 0  9993
2 45807   0.5995  17.9871 0009457 299.8272  77.2696  1.00264834 13369
BEIDOU-3 G4             
1 56564U 23066A   24028.87174569 -.00000102  00000+0  00000+0 0  9998
2 56564   2.4746 288.2537 0002591 224.4166  88.8646  1.00271912  2665
BEIDOU-3 M25            
1 58654U 23207A   24028.36179901 -.00000023  00000+0  00000+0 0  9998
2 58654  54.9957  91.8739 0004054 263.2826  96.7414  1.86232180   628
BEIDOU-3 M26            
1 58655U 23207B   24028.16042572 -.00000023  00000+0  00000+0 0  9990
2 58655  54.9977  91.8661 0005150 250.9548 109.0592  1.86231602   608
